{"fetched_at":"2026-07-13T05:28:12.237Z","source":"https://celestrak.org/NORAD/elements/gp.php?NAME=HULIANWANG&FORMAT=JSON","constellation":"guowang","records":[{"OBJECT_NAME":"HULIANWANG DIGUI-28","OBJECT_ID":"2025-086J","EPOCH":"2026-07-12T18:41:56.486400","CLASSIFICATION_TYPE":"U","MEAN_MOTION":13.24410856,"ECCENTRICITY":0.0002028,"INCLINATION":86.502,"RA_OF_ASC_NODE":304.3127,"ARG_OF_PERICENTER":112.9515,"MEAN_ANOMALY":247.1833,"EPHEMERIS_TYPE":0,"NORAD_CAT_ID":63695,"ELEMENT_SET_NO":999,"REV_AT_EPOCH":5824,"BSTAR":0.000016884,"MEAN_MOTION_DOT":2.2e-7,"MEAN_MOTION_DDOT":0},{"OBJECT_NAME":"HULIANWANG DIGUI-29","OBJECT_ID":"2025-086K","EPOCH":"2026-07-12T20:19:54.085728","CLASSIFICATION_TYPE":"U","MEAN_MOTION":13.24411297,"ECCENTRICITY":0.0001882,"INCLINATION":86.5048,"RA_OF_ASC_NODE":304.4047,"ARG_OF_PERICENTER":114.3076,"MEAN_ANOMALY":245.8254,"EPHEMERIS_TYPE":0,"NORAD_CAT_ID":63696,"ELEMENT_SET_NO":999,"REV_AT_EPOCH":5825,"BSTAR":0.000025779,"MEAN_MOTION_DOT":2.6e-7,"MEAN_MOTION_DDOT":0},{"OBJECT_NAME":"HULIANWANG DIGUI-30","OBJECT_ID":"2025-121A","EPOCH":"2026-07-12T20:30:36.580320","CLASSIFICATION_TYPE":"U","MEAN_MOTION":13.24409453,"ECCENTRICITY":0.0001993,"INCLINATION":86.4992,"RA_OF_ASC_NODE":4.8958,"ARG_OF_PERICENTER":89.2386,"MEAN_ANOMALY":270.8977,"EPHEMERIS_TYPE":0,"NORAD_CAT_ID":64283,"ELEMENT_SET_NO":999,"REV_AT_EPOCH":5355,"BSTAR":0.0000059922,"MEAN_MOTION_DOT":1.7e-7,"MEAN_MOTION_DDOT":0},{"OBJECT_NAME":"HULIANWANG DIGUI-31","OBJECT_ID":"2025-121B","EPOCH":"2026-07-12T20:19:49.102176","CLASSIFICATION_TYPE":"U","MEAN_MOTION":13.24414457,"ECCENTRICITY":0.0001981,"INCLINATION":86.5013,"RA_OF_ASC_NODE":4.9745,"ARG_OF_PERICENTER":89.4316,"MEAN_ANOMALY":270.7045,"EPHEMERIS_TYPE":0,"NORAD_CAT_ID":64284,"ELEMENT_SET_NO":999,"REV_AT_EPOCH":5355,"BSTAR":-0.000010216,"MEAN_MOTION_DOT":1e-7,"MEAN_MOTION_DDOT":0},{"OBJECT_NAME":"HULIANWANG DIGUI-32","OBJECT_ID":"2025-121C","EPOCH":"2026-07-12T20:08:43.315008","CLASSIFICATION_TYPE":"U","MEAN_MOTION":13.24410287,"ECCENTRICITY":0.0001924,"INCLINATION":86.4954,"RA_OF_ASC_NODE":4.7332,"ARG_OF_PERICENTER":93.3357,"MEAN_ANOMALY":266.7997,"EPHEMERIS_TYPE":0,"NORAD_CAT_ID":64285,"ELEMENT_SET_NO":999,"REV_AT_EPOCH":5355,"BSTAR":-0.000016996,"MEAN_MOTION_DOT":7e-8,"MEAN_MOTION_DDOT":0},{"OBJECT_NAME":"HULIANWANG DIGUI-33","OBJECT_ID":"2025-121D","EPOCH":"2026-07-12T19:57:51.007104","CLASSIFICATION_TYPE":"U","MEAN_MOTION":13.24409911,"ECCENTRICITY":0.0002001,"INCLINATION":86.5012,"RA_OF_ASC_NODE":4.9631,"ARG_OF_PERICENTER":89.7915,"MEAN_ANOMALY":270.3448,"EPHEMERIS_TYPE":0,"NORAD_CAT_ID":64286,"ELEMENT_SET_NO":999,"REV_AT_EPOCH":5355,"BSTAR":0.000017963,"MEAN_MOTION_DOT":2.2e-7,"MEAN_MOTION_DDOT":0},{"OBJECT_NAME":"HULIANWANG DIGUI-34","OBJECT_ID":"2025-121E","EPOCH":"2026-07-12T19:47:01.648896","CLASSIFICATION_TYPE":"U","MEAN_MOTION":13.24410606,"ECCENTRICITY":0.0002222,"INCLINATION":86.4989,"RA_OF_ASC_NODE":4.8696,"ARG_OF_PERICENTER":83.4491,"MEAN_ANOMALY":276.6896,"EPHEMERIS_TYPE":0,"NORAD_CAT_ID":64287,"ELEMENT_SET_NO":999,"REV_AT_EPOCH":5355,"BSTAR":0.00005143,"MEAN_MOTION_DOT":3.7e-7,"MEAN_MOTION_DDOT":0},{"OBJECT_NAME":"HULIANWANG DIGUI-35","OBJECT_ID":"2025-159A","EPOCH":"2026-07-12T20:41:40.666272","CLASSIFICATION_TYPE":"U","MEAN_MOTION":13.2441305,"ECCENTRICITY":0.0004627,"INCLINATION":86.4942,"RA_OF_ASC_NODE":273.7565,"ARG_OF_PERICENTER":69.4483,"MEAN_ANOMALY":290.7148,"EPHEMERIS_TYPE":0,"NORAD_CAT_ID":64956,"ELEMENT_SET_NO":999,"REV_AT_EPOCH":4652,"BSTAR":0.00011498,"MEAN_MOTION_DOT":6.4e-7,"MEAN_MOTION_DDOT":0},{"OBJECT_NAME":"HULIANWANG DIGUI-36","OBJECT_ID":"2025-159B","EPOCH":"2026-07-12T20:36:01.771776","CLASSIFICATION_TYPE":"U","MEAN_MOTION":13.2440844,"ECCENTRICITY":0.000163,"INCLINATION":86.4961,"RA_OF_ASC_NODE":273.8231,"ARG_OF_PERICENTER":101.091,"MEAN_ANOMALY":259.0407,"EPHEMERIS_TYPE":0,"NORAD_CAT_ID":64957,"ELEMENT_SET_NO":999,"REV_AT_EPOCH":4652,"BSTAR":0.00009782,"MEAN_MOTION_DOT":5.7e-7,"MEAN_MOTION_DDOT":0},{"OBJECT_NAME":"HULIANWANG DIGUI-37","OBJECT_ID":"2025-159C","EPOCH":"2026-07-12T20:25:07.818816","CLASSIFICATION_TYPE":"U","MEAN_MOTION":13.24409168,"ECCENTRICITY":0.0001789,"INCLINATION":86.4902,"RA_OF_ASC_NODE":273.6144,"ARG_OF_PERICENTER":97.8322,"MEAN_ANOMALY":262.3016,"EPHEMERIS_TYPE":0,"NORAD_CAT_ID":64958,"ELEMENT_SET_NO":999,"REV_AT_EPOCH":4652,"BSTAR":0.000088157,"MEAN_MOTION_DOT":5.2e-7,"MEAN_MOTION_DDOT":0},{"OBJECT_NAME":"HULIANWANG DIGUI-38","OBJECT_ID":"2025-159D","EPOCH":"2026-07-12T20:14:18.077856","CLASSIFICATION_TYPE":"U","MEAN_MOTION":13.24408841,"ECCENTRICITY":0.0001839,"INCLINATION":86.4961,"RA_OF_ASC_NODE":273.816,"ARG_OF_PERICENTER":98.9012,"MEAN_ANOMALY":261.233,"EPHEMERIS_TYPE":0,"NORAD_CAT_ID":64959,"ELEMENT_SET_NO":999,"REV_AT_EPOCH":4652,"BSTAR":0.00005104,"MEAN_MOTION_DOT":3.7e-7,"MEAN_MOTION_DDOT":0},{"OBJECT_NAME":"HULIANWANG DIGUI-39","OBJECT_ID":"2025-159E","EPOCH":"2026-07-12T20:03:24.214752","CLASSIFICATION_TYPE":"U","MEAN_MOTION":13.24408744,"ECCENTRICITY":0.000179,"INCLINATION":86.4937,"RA_OF_ASC_NODE":273.7282,"ARG_OF_PERICENTER":101.6873,"MEAN_ANOMALY":258.4462,"EPHEMERIS_TYPE":0,"NORAD_CAT_ID":64960,"ELEMENT_SET_NO":999,"REV_AT_EPOCH":4652,"BSTAR":0.00004493,"MEAN_MOTION_DOT":3.4e-7,"MEAN_MOTION_DDOT":0},{"OBJECT_NAME":"HULIANWANG DIGUI-40","OBJECT_ID":"2025-162A","EPOCH":"2026-07-12T19:15:20.327040","CLASSIFICATION_TYPE":"U","MEAN_MOTION":13.29327208,"ECCENTRICITY":0.0000293,"INCLINATION":49.9977,"RA_OF_ASC_NODE":174.0622,"ARG_OF_PERICENTER":303.4999,"MEAN_ANOMALY":56.5845,"EPHEMERIS_TYPE":0,"NORAD_CAT_ID":65043,"ELEMENT_SET_NO":999,"REV_AT_EPOCH":4675,"BSTAR":0.000025142,"MEAN_MOTION_DOT":-0.00000112,"MEAN_MOTION_DDOT":0},{"OBJECT_NAME":"HULIANWANG DIGUI-41","OBJECT_ID":"2025-162B","EPOCH":"2026-07-12T19:03:19.941120","CLASSIFICATION_TYPE":"U","MEAN_MOTION":13.29326782,"ECCENTRICITY":0.0000268,"INCLINATION":49.9987,"RA_OF_ASC_NODE":174.046,"ARG_OF_PERICENTER":310.7992,"MEAN_ANOMALY":49.2857,"EPHEMERIS_TYPE":0,"NORAD_CAT_ID":65044,"ELEMENT_SET_NO":999,"REV_AT_EPOCH":4676,"BSTAR":0.000023034,"MEAN_MOTION_DOT":-0.00000113,"MEAN_MOTION_DDOT":0},{"OBJECT_NAME":"HULIANWANG DIGUI-42","OBJECT_ID":"2025-162C","EPOCH":"2026-07-12T18:51:12.688992","CLASSIFICATION_TYPE":"U","MEAN_MOTION":13.29327408,"ECCENTRICITY":0.000029,"INCLINATION":49.9952,"RA_OF_ASC_NODE":173.9066,"ARG_OF_PERICENTER":299.9505,"MEAN_ANOMALY":60.1338,"EPHEMERIS_TYPE":0,"NORAD_CAT_ID":65045,"ELEMENT_SET_NO":999,"REV_AT_EPOCH":4676,"BSTAR":0.000028232,"MEAN_MOTION_DOT":-0.00000111,"MEAN_MOTION_DDOT":0},{"OBJECT_NAME":"HULIANWANG DIGUI-43","OBJECT_ID":"2025-162D","EPOCH":"2026-07-12T18:39:13.903200","CLASSIFICATION_TYPE":"U","MEAN_MOTION":13.29325984,"ECCENTRICITY":0.0000337,"INCLINATION":49.9969,"RA_OF_ASC_NODE":173.9118,"ARG_OF_PERICENTER":299.5415,"MEAN_ANOMALY":60.5424,"EPHEMERIS_TYPE":0,"NORAD_CAT_ID":65046,"ELEMENT_SET_NO":999,"REV_AT_EPOCH":4676,"BSTAR":0.000033691,"MEAN_MOTION_DOT":-0.00000108,"MEAN_MOTION_DDOT":0}]}
