HULIANWANG DIGUI-28     
1 63695U 25086J   26193.77912600  .00000022  00000+0  16884-4 0  9997
2 63695  86.5020 304.3127 0002028 112.9515 247.1833 13.24410856 58249
HULIANWANG DIGUI-29     
1 63696U 25086K   26193.84715377  .00000026  00000+0  25779-4 0  9995
2 63696  86.5048 304.4047 0001882 114.3076 245.8254 13.24411297 58250
HULIANWANG DIGUI-30     
1 64283U 25121A   26193.85459005  .00000017  00000+0  59922-5 0  9990
2 64283  86.4992   4.8958 0001993  89.2386 270.8977 13.24409453 53558
HULIANWANG DIGUI-31     
1 64284U 25121B   26193.84709609  .00000010  00000+0 -10216-4 0  9994
2 64284  86.5013   4.9745 0001981  89.4316 270.7045 13.24414457 53556
HULIANWANG DIGUI-32     
1 64285U 25121C   26193.83939022  .00000007  00000+0 -16996-4 0  9995
2 64285  86.4954   4.7332 0001924  93.3357 266.7997 13.24410287 53554
HULIANWANG DIGUI-33     
1 64286U 25121D   26193.83184036  .00000022  00000+0  17963-4 0  9994
2 64286  86.5012   4.9631 0002001  89.7915 270.3448 13.24409911 53555
HULIANWANG DIGUI-34     
1 64287U 25121E   26193.82432464  .00000037  00000+0  51430-4 0  9998
2 64287  86.4989   4.8696 0002222  83.4491 276.6896 13.24410606 53552
HULIANWANG DIGUI-35     
1 64956U 25159A   26193.86227623  .00000064  00000+0  11498-3 0  9994
2 64956  86.4942 273.7565 0004627  69.4483 290.7148 13.24413050 46524
HULIANWANG DIGUI-36     
1 64957U 25159B   26193.85835384  .00000057  00000+0  97820-4 0  9999
2 64957  86.4961 273.8231 0001630 101.0910 259.0407 13.24408440 46529
HULIANWANG DIGUI-37     
1 64958U 25159C   26193.85078494  .00000052  00000+0  88157-4 0  9999
2 64958  86.4902 273.6144 0001789  97.8322 262.3016 13.24409168 46521
HULIANWANG DIGUI-38     
1 64959U 25159D   26193.84326479  .00000037  00000+0  51040-4 0  9992
2 64959  86.4961 273.8160 0001839  98.9012 261.2330 13.24408841 46525
HULIANWANG DIGUI-39     
1 64960U 25159E   26193.83569693  .00000034  00000+0  44930-4 0  9997
2 64960  86.4937 273.7282 0001790 101.6873 258.4462 13.24408744 46523
HULIANWANG DIGUI-40     
1 65043U 25162A   26193.80231860 -.00000112  00000+0  25142-4 0  9995
2 65043  49.9977 174.0622 0000293 303.4999  56.5845 13.29327208 46750
HULIANWANG DIGUI-41     
1 65044U 25162B   26193.79398080 -.00000113  00000+0  23034-4 0  9991
2 65044  49.9987 174.0460 0000268 310.7992  49.2857 13.29326782 46767
HULIANWANG DIGUI-42     
1 65045U 25162C   26193.78556353 -.00000111  00000+0  28232-4 0  9993
2 65045  49.9952 173.9066 0000290 299.9505  60.1338 13.29327408 46765
HULIANWANG DIGUI-43     
1 65046U 25162D   26193.77724425 -.00000108  00000+0  33691-4 0  9991
2 65046  49.9969 173.9118 0000337 299.5415  60.5424 13.29325984 46767
